NORAD_CAT_ID,OBJECT_NAME,OBJECT_TYPE,EPOCH,MEAN_MOTION,ECCENTRICITY,INCLINATION,RA_OF_ASC_NODE,ARG_OF_PERICENTER,MEAN_ANOMALY,BSTAR,MEAN_MOTION_DOT,MEAN_MOTION_DDOT,TLE_LINE0,TLE_LINE1,TLE_LINE2,SEMIMAJOR_AXIS,PERIOD,APOGEE,PERIGEE,DECAYED
51971.0,STARLINK-3669,PAYLOAD,2022-10-11 03:07:07,15.08812862,0.0001523,53.2188,220.6473,57.6531,302.4609,-0.00010241,-1.916e-05,0.0,0 STARLINK-3669,1 51971U 22025R   22284.12995113 -.00001916  00000-0 -10241-3 0  9993,2 51971  53.2188 220.6473 0001523  57.6531 302.4609 15.08812862 33162,6917.9630000000025,95.439,540.882,538.775,0.0
51971.0,STARLINK-3669,PAYLOAD,2022-10-11 19:00:57,15.08848972,0.0001365,53.2185,217.6751,35.5577,324.5506,0.00015336,2.154e-05,0.0,0 STARLINK-3669,1 51971U 22025R   22284.79232878  .00002154  00000-0  15336-3 0  9991,2 51971  53.2185 217.6751 0001365  35.5577 324.5506 15.08848972 33266,6917.853,95.437,540.6619999999998,538.774,0.0
51971.0,STARLINK-3669,PAYLOAD,2022-10-12 12:30:11,15.08844762,0.0001513,53.2185,214.4051,54.5989,305.5144,7.3122e-05,8.76e-06,0.0,0 STARLINK-3669,1 51971U 22025R   22285.52097195  .00000876  00000-0  73122-4 0  9991,2 51971  53.2185 214.4051 0001513  54.5989 305.5144 15.08844762 33379,6917.866,95.437,540.778,538.684,0.0
51971.0,STARLINK-3669,PAYLOAD,2022-10-12 14:05:35,15.08839886,0.000152,53.2184,214.108,56.2148,303.8989,0.00017645,2.521e-05,0.0,0 STARLINK-3669,1 51971U 22025R   22285.58721177  .00002521  00000-0  17645-3 0  9997,2 51971  53.2184 214.1080 0001520  56.2148 303.8989 15.08839886 34494,6917.880999999999,95.438,540.797,538.694,0.0
51971.0,STARLINK-3669,PAYLOAD,2022-10-13 02:48:40,15.08828577,0.0001207,53.2184,211.7277,74.3357,285.7769,0.00016332,2.312e-05,0.0,0 STARLINK-3669,1 51971U 22025R   22286.11713967  .00002312  00000-0  16332-3 0  9995,2 51971  53.2184 211.7277 0001207  74.3357 285.7769 15.08828577 34578,6917.915,95.438,540.615,538.945,0.0
51971.0,STARLINK-3669,PAYLOAD,2022-10-13 12:21:00,15.08817011,0.0001692,53.2188,209.9446,56.1655,303.9498,0.00014389,2.001e-05,0.0,0 STARLINK-3669,1 51971U 22025R   22286.51459325  .00002001  00000-0  14389-3 0  9999,2 51971  53.2188 209.9446 0001692  56.1655 303.9498 15.08817011 33523,6917.951,95.439,540.986,538.645,0.0
51971.0,STARLINK-3669,PAYLOAD,2022-10-14 01:04:04,15.08851683,0.0001513,53.2183,207.5662,55.7818,304.3317,-5.0285e-05,-1.088e-05,0.0,0 STARLINK-3669,1 51971U 22025R   22287.04449698 -.00001088  00000-0 -50285-4 0  9992,2 51971  53.2183 207.5662 0001513  55.7818 304.3317 15.08851683 34710,6917.845,95.437,540.756,538.663,0.0
51971.0,STARLINK-3669,PAYLOAD,2022-10-15 00:54:50,15.0884967,0.0001436,53.2188,203.1058,54.8389,305.2738,8.4098e-05,1.051e-05,0.0,0 STARLINK-3669,1 51971U 22025R   22288.03808924  .00001051  00000-0  84098-4 0  9990,2 51971  53.2188 203.1058 0001436  54.8389 305.2738 15.08849670 33756,6917.851,95.437,540.7090000000002,538.722,0.0
51971.0,STARLINK-3669,PAYLOAD,2022-10-16 00:45:37,15.08848524,0.0001629,53.2189,198.6446,60.7905,299.325,5.662e-05,6.13e-06,0.0,0 STARLINK-3669,1 51971U 22025R   22289.03168584  .00000613  00000-0  56620-4 0  9995,2 51971  53.2189 198.6446 0001629  60.7905 299.3250 15.08848524 35010,6917.854,95.437,540.846,538.592,0.0
51971.0,STARLINK-3669,PAYLOAD,2022-10-16 18:14:53,15.08833386,0.0001691,53.2187,195.3747,61.0144,299.1018,-0.00017823,-3.123e-05,0.0,0 STARLINK-3669,1 51971U 22025R   22289.76034532 -.00003123  00000-0 -17823-3 0  9992,2 51971  53.2187 195.3747 0001691  61.0144 299.1018 15.08833386 34013,6917.901,95.438,540.935,538.596,0.0
51971.0,STARLINK-3669,PAYLOAD,2022-10-17 03:47:12,15.08839275,0.0001675,53.2191,193.59,57.6276,302.4878,-0.00010659,-1.984e-05,0.0,0 STARLINK-3669,1 51971U 22025R   22290.15777994 -.00001984  00000-0 -10659-3 0  9996,2 51971  53.2191 193.5900 0001675  57.6276 302.4878 15.08839275 35182,6917.8830000000025,95.438,540.906,538.589,0.0
51971.0,STARLINK-3669,PAYLOAD,2022-10-17 10:08:44,15.08845006,0.0001682,53.2188,192.4012,57.8507,302.2648,-4.7166e-05,-1.039e-05,0.0,0 STARLINK-3669,1 51971U 22025R   22290.42273395 -.00001039  00000-0 -47166-4 0  9997,2 51971  53.2188 192.4012 0001682  57.8507 302.2648 15.08845006 34111,6917.865,95.437,540.894,538.567,0.0
51971.0,STARLINK-3669,PAYLOAD,2022-10-17 19:41:03,15.088444,0.0001698,53.2182,190.6183,57.8183,302.2974,-0.00015725,-2.79e-05,0.0,0 STARLINK-3669,1 51971U 22025R   22290.82018015 -.00002790  00000-0 -15725-3 0  9997,2 51971  53.2182 190.6183 0001698  57.8183 302.2974 15.08844400 35289,6917.8669999999975,95.437,540.9069999999998,538.557,0.0
51971.0,STARLINK-3669,PAYLOAD,2022-10-18 09:59:32,15.08826207,0.0001639,53.2184,187.943,54.8386,305.2759,8.273799999999999e-05,1.029e-05,0.0,0 STARLINK-3669,1 51971U 22025R   22291.41634408  .00001029  00000-0  82738-4 0  9994,2 51971  53.2184 187.9430 0001639  54.8386 305.2759 15.08826207 35371,6917.9230000000025,95.438,540.9209999999998,538.654,0.0
51971.0,STARLINK-3669,PAYLOAD,2022-10-18 13:10:19,15.08821081,0.0001636999999999,53.2184,187.3481,58.8541,301.2612,1.4878e-05,-5.1e-07,0.0,0 STARLINK-3669,1 51971U 22025R   22291.54883112 -.00000051  00000-0  14878-4 0  9991,2 51971  53.2184 187.3481 0001637  58.8541 301.2612 15.08821081 35397,6917.938,95.439,540.936,538.6709999999998,0.0
51971.0,STARLINK-3669,PAYLOAD,2022-10-18 19:31:51,15.08820076,0.0001663,53.2183,186.1583,57.6431,302.4722,7.139500000000003e-06,-1.74e-06,0.0,0 STARLINK-3669,1 51971U 22025R   22291.81379472 -.00000174  00000-0  71395-5 0  9994,2 51971  53.2183 186.1583 0001663  57.6431 302.4722 15.08820076 34320,6917.941,95.439,540.957,538.656,0.0
51971.0,STARLINK-3669,PAYLOAD,2022-10-19 11:25:42,15.08839085,0.0001717,53.218,183.185,63.0538,297.0629,6.3297e-05,7.19e-06,0.0,0 STARLINK-3669,1 51971U 22025R   22292.47618515  .00000719  00000-0  63297-4 0  9996,2 51971  53.2180 183.1850 0001717  63.0538 297.0629 15.08839085 34426,6917.8830000000025,95.438,540.936,538.56,0.0
51971.0,STARLINK-3669,PAYLOAD,2022-10-19 19:22:38,15.08831379,0.0001573,53.2182,181.6977,62.3065,297.8086,3.3698e-05,2.48e-06,0.0,0 STARLINK-3669,1 51971U 22025R   22292.80739156  .00000248  00000-0  33698-4 0  9997,2 51971  53.2182 181.6977 0001573  62.3065 297.8086 15.08831379 34476,6917.906999999997,95.438,540.86,538.684,0.0
51971.0,STARLINK-3669,PAYLOAD,2022-10-20 11:16:29,15.08841468,0.0001658,53.2181,178.7244,60.9735,299.1423,0.0001157,1.554e-05,0.0,0 STARLINK-3669,1 51971U 22025R   22293.46978409  .00001554  00000-0  11570-3 0  9991,2 51971  53.2181 178.7244 0001658  60.9735 299.1423 15.08841468 35685,6917.876,95.437,540.888,538.594,0.0
51971.0,STARLINK-3669,PAYLOAD,2022-10-20 19:13:25,15.08833053,0.0001575999999999,53.2181,177.2374,60.1914,299.9234,0.00012659,1.727e-05,0.0,0 STARLINK-3669,1 51971U 22025R   22293.80098942  .00001727  00000-0  12659-3 0  9995,2 51971  53.2181 177.2374 0001576  60.1914 299.9234 15.08833053 35738,6917.901999999999,95.438,540.857,538.6759999999998,0.0
51971.0,STARLINK-3669,PAYLOAD,2022-10-21 09:31:53,15.08847567,0.0001693,53.2182,174.5606,60.4134,299.7027,9.0599e-05,1.154e-05,0.0,0 STARLINK-3669,1 51971U 22025R   22294.39714181  .00001154  00000-0  90599-4 0  9994,2 51971  53.2182 174.5606 0001693  60.4134 299.7027 15.08847567 35827,6917.857,95.437,540.893,538.5509999999998,0.0
51971.0,STARLINK-3669,PAYLOAD,2022-10-21 11:07:16,15.08846041,0.000175,53.2179,174.2638,59.3891,300.7273,0.00012756,1.743e-05,0.0,0 STARLINK-3669,1 51971U 22025R   22294.46338120  .00001743  00000-0  12756-3 0  9999,2 51971  53.2179 174.2638 0001750  59.3891 300.7273 15.08846041 34726,6917.861999999999,95.437,540.938,538.516,0.0
51971.0,STARLINK-3669,PAYLOAD,2022-10-21 19:04:12,15.08837748,0.0001740999999999,53.2178,172.7769,59.679,300.4374,4.1177e-05,3.67e-06,0.0,0 STARLINK-3669,1 51971U 22025R   22294.79458866  .00000367  00000-0  41177-4 0  9996,2 51971  53.2178 172.7769 0001741  59.6790 300.4374 15.08837748 34772,6917.887,95.438,540.957,538.548,0.0
51971.0,STARLINK-3669,PAYLOAD,2022-10-21 22:14:58,15.08839419,0.0001719,53.2176,172.1817,63.3864,296.7304,5.7943e-05,6.34e-06,0.0,0 STARLINK-3669,1 51971U 22025R   22294.92706677  .00000634  00000-0  57943-4 0  9992,2 51971  53.2176 172.1817 0001719  63.3864 296.7304 15.08839419 34796,6917.882,95.438,540.936,538.558,0.0
51971.0,STARLINK-3669,PAYLOAD,2022-10-22 20:30:23,15.08827233,0.0001639,53.2181,168.0186,59.2572,300.8581,-8.896e-05,-1.703e-05,0.0,0 STARLINK-3669,1 51971U 22025R   22295.85444319 -.00001703  00000-0 -88960-4 0  9990,2 51971  53.2181 168.0186 0001639  59.2572 300.8581 15.08827233 34937,6917.919,95.438,540.918,538.651,0.0
51971.0,STARLINK-3669,PAYLOAD,2022-10-22 22:05:46,15.08828684,0.0001496999999999,53.2181,167.7223,53.8188,306.2942,-6.7902e-05,-1.368e-05,0.0,0 STARLINK-3669,1 51971U 22025R   22295.92068116 -.00001368  00000-0 -67902-4 0  9995,2 51971  53.2181 167.7223 0001497  53.8188 306.2942 15.08828684 36057,6917.915,95.438,540.816,538.744,0.0
51971.0,STARLINK-3669,PAYLOAD,2022-10-23 18:45:46,15.08840699,0.0001603,53.2178,163.8558,57.4036,302.7111,5.5658e-05,5.98e-06,0.0,0 STARLINK-3669,1 51971U 22025R   22296.78179200  .00000598  00000-0  55658-4 0  9994,2 51971  53.2178 163.8558 0001603  57.4036 302.7111 15.08840699 35072,6917.878000000002,95.438,540.852,538.634,0.0
51971.0,STARLINK-3669,PAYLOAD,2022-10-23 21:56:32,15.08843972,0.0001618,53.2177,163.261,57.4476,302.6672,8.441799999999999e-05,1.056e-05,0.0,0 STARLINK-3669,1 51971U 22025R   22296.91426926  .00001056  00000-0  84418-4 0  9995,2 51971  53.2177 163.2610 0001618  57.4476 302.6672 15.08843972 36202,6917.868,95.437,540.8530000000002,538.614,0.0
51971.0,STARLINK-3669,PAYLOAD,2022-10-24 10:39:37,15.08842117,0.0001607,53.2174,160.8828,53.2644,306.8495,0.00016955,2.412e-05,0.0,0 STARLINK-3669,1 51971U 22025R   22297.44418757  .00002412  00000-0  16955-3 0  9994,2 51971  53.2174 160.8828 0001607  53.2644 306.8495 15.08842117 35176,6917.874,95.437,540.851,538.627,0.0
